     2              NAVIGATION DATA                         RINEX VERSION / TYPE
CCRINEXN V1.6.0 UX  CDDIS               14-DEC-25 15:09     PGM / RUN BY / DATE 
IGS BROADCAST EPHEMERIS FILE                                COMMENT             
    0.1676D-07 -0.1490D-07 -0.5960D-07  0.1788D-06          ION ALPHA           
    0.1290D+06 -0.1802D+06  0.6554D+05  0.1311D+06          ION BETA            
   -0.279396772385D-08-0.710542735760D-14   233472     2397 DELTA-UTC: A0,A1,T,W
    18                                                      LEAP SECONDS        
                                                            END OF HEADER       
32 25 12 14 12  0  0.0-0.207985285670D-03 0.161435309565D-10 0.000000000000D+00
    0.440000000000D+02-0.790625000000D+01 0.461947813409D-08-0.284845519158D+01
   -0.378116965294D-06 0.900422758423D-02 0.694021582603D-05 0.515369436264D+04
    0.432000000000D+05 0.156462192535D-06 0.243210887007D+00-0.122934579849D-06
    0.967236115735D+00 0.246906250000D+03-0.204441743010D+01-0.789997192268D-08
    0.344657213499D-09 0.100000000000D+01 0.239700000000D+04 0.000000000000D+00
    0.200000000000D+01 0.000000000000D+00 0.931322574616D-09 0.440000000000D+02
    0.360180000000D+05 0.400000000000D+01 0.000000000000D+00 0.000000000000D+00
 1 25 12 14 13 14 40.0 0.351506285369D-03-0.193267624127D-11 0.000000000000D+00
    0.210000000000D+02-0.587812500000D+02 0.454590364085D-08 0.231938989830D+01
   -0.309757888317D-05 0.119424820878D-02 0.447407364845D-05 0.515364081001D+04
    0.476800000000D+05 0.279396772385D-07-0.176595509329D+01-0.167638063431D-07
    0.958313417029D+00 0.289906250000D+03-0.692340654081D-01-0.826891586211D-08
   -0.133576992589D-09 0.100000000000D+01 0.239700000000D+04 0.000000000000D+00
    0.200000000000D+01 0.000000000000D+00-0.884756445885D-08 0.789000000000D+03
    0.405180000000D+05 0.400000000000D+01 0.000000000000D+00 0.000000000000D+00
18 25 12 14 13 14 40.0-0.477422028780D-03 0.989075488178D-11 0.000000000000D+00
    0.770000000000D+02-0.550625000000D+02 0.424374819772D-08 0.126336882059D+01
   -0.280328094959D-05 0.569324591197D-02 0.523589551449D-05 0.515365434074D+04
    0.476800000000D+05-0.502914190292D-07-0.182159428586D+01 0.968575477600D-07
    0.972239880733D+00 0.284843750000D+03-0.285690794687D+01-0.812390982202D-08
   -0.236795577772D-09 0.100000000000D+01 0.239700000000D+04 0.000000000000D+00
    0.200000000000D+01 0.000000000000D+00-0.838190317154D-08 0.333000000000D+03
    0.405280000000D+05 0.400000000000D+01 0.000000000000D+00 0.000000000000D+00
19 25 12 14 13 59 44.0 0.680399127305D-03 0.204636307899D-11 0.000000000000D+00
    0.700000000000D+01 0.583750000000D+02 0.456411868529D-08-0.756703638235D+00
    0.303611159325D-05 0.108876022277D-01 0.425055623054D-05 0.515369906616D+04
    0.503840000000D+05 0.726431608200D-07-0.278759055950D+01-0.273808836937D-06
    0.959911992965D+00 0.301031250000D+03 0.290444137954D+01-0.827891627866D-08
    0.875036448780D-10 0.100000000000D+01 0.239700000000D+04 0.000000000000D+00
    0.200000000000D+01 0.000000000000D+00-0.153668224812D-07 0.700000000000D+01
    0.491170000000D+05 0.400000000000D+01 0.000000000000D+00 0.000000000000D+00
 1 25 12 14 14  0  0.0 0.351501163095D-03-0.193267624127D-11 0.000000000000D+00
    0.220000000000D+02-0.620000000000D+02 0.451733102211D-08 0.271593136652D+01
   -0.316090881825D-05 0.119391409680D-02 0.446103513241D-05 0.515364155960D+04
    0.504000000000D+05 0.353902578354D-07-0.176597755493D+01-0.186264514923D-08
    0.958313016189D+00 0.290500000000D+03-0.690330063361D-01-0.827784480546D-08
   -0.139648674071D-09 0.100000000000D+01 0.239700000000D+04 0.000000000000D+00
    0.200000000000D+01 0.000000000000D+00-0.884756445885D-08 0.790000000000D+03
    0.432180000000D+05 0.400000000000D+01 0.000000000000D+00 0.000000000000D+00
 2 25 12 14 14  0  0.0-0.580679625273D-05 0.841282599140D-11 0.000000000000D+00
    0.670000000000D+02-0.413125000000D+02 0.436911056242D-08-0.220610412477D+01
   -0.172294676304D-05 0.169139184291D-01 0.413134694099D-05 0.515362615776D+04
    0.504000000000D+05-0.819563865662D-07-0.192897512076D+01 0.344589352608D-06
    0.963878553434D+00 0.302437500000D+03-0.877165456502D+00-0.811319509000D-08
   -0.126076680171D-09 0.100000000000D+01 0.239700000000D+04 0.000000000000D+00
    0.200000000000D+01 0.000000000000D+00-0.176951289177D-07 0.670000000000D+02
    0.432180000000D+05 0.400000000000D+01 0.000000000000D+00 0.000000000000D+00
 3 25 12 14 14  0  0.0 0.623852014542D-03-0.875388650456D-11 0.000000000000D+00
    0.790000000000D+02-0.523125000000D+02 0.366086677551D-08 0.424960351819D+00
   -0.294111669064D-05 0.630102038849D-02 0.945106148720D-05 0.515367019272D+04
    0.504000000000D+05-0.298023223877D-07-0.781100803504D+00 0.279396772385D-07
    0.992488657982D+00 0.215250000000D+03 0.121926411095D+01-0.769067749044D-08
    0.199651173416D-09 0.100000000000D+01 0.239700000000D+04 0.000000000000D+00
    0.200000000000D+01 0.000000000000D+00 0.139698386192D-08 0.790000000000D+02
    0.438120000000D+05 0.400000000000D+01 0.000000000000D+00 0.000000000000D+00
 4 25 12 14 14  0  0.0 0.313930213451D-04 0.261479726760D-11 0.000000000000D+00
    0.660000000000D+02-0.196875000000D+01 0.457483341732D-08-0.274021940249D+01
   -0.819563865662D-07 0.369104708079D-02 0.730156898499D-05 0.515375452614D+04
    0.504000000000D+05-0.484287738800D-07 0.290092529690D+00-0.465661287308D-07
    0.970020067858D+00 0.247781250000D+03-0.294239059365D+01-0.792568727955D-08
    0.376801409577D-09 0.100000000000D+01 0.239700000000D+04 0.000000000000D+00
    0.200000000000D+01 0.000000000000D+00-0.465661287308D-08 0.578000000000D+03
    0.452220000000D+05 0.400000000000D+01 0.000000000000D+00 0.000000000000D+00
 6 25 12 14 14  0  0.0-0.589286442846D-03-0.579802872380D-11 0.000000000000D+00
    0.470000000000D+02-0.505625000000D+02 0.383265964566D-08 0.186425562786D+01
   -0.253133475781D-05 0.377020437736D-02 0.461377203465D-05 0.515370109558D+04
    0.504000000000D+05 0.931322574616D-08-0.181768093026D+01 0.223517417908D-07
    0.987281193345D+00 0.302875000000D+03-0.672941102241D+00-0.787389940809D-08
   -0.150363406097D-09 0.100000000000D+01 0.239700000000D+04 0.000000000000D+00
    0.200000000000D+01 0.000000000000D+00 0.372529029846D-08 0.470000000000D+02
    0.487980000000D+05 0.400000000000D+01 0.000000000000D+00 0.000000000000D+00
 8 25 12 14 14  0  0.0 0.514661893249D-03-0.341060513165D-11 0.000000000000D+00
    0.220000000000D+02 0.782187500000D+02 0.485734518507D-08-0.251260376056D+01
    0.397115945816D-05 0.112127074972D-01 0.493787229061D-05 0.515365712547D+04
    0.504000000000D+05-0.260770320892D-07-0.293498355707D+01-0.160187482834D-06
    0.945051100577D+00 0.277531250000D+03 0.485191919265D+00-0.829248827257D-08
    0.170721396946D-09 0.100000000000D+01 0.239700000000D+04 0.000000000000D+00
    0.200000000000D+01 0.000000000000D+00 0.465661287308D-08 0.220000000000D+02
    0.432180000000D+05 0.400000000000D+01 0.000000000000D+00 0.000000000000D+00
 9 25 12 14 14  0  0.0 0.767481047660D-03 0.170530256582D-11 0.000000000000D+00
    0.480000000000D+02 0.118750000000D+01 0.471055335631D-08-0.196081343785D+01
    0.204890966415D-06 0.347101385705D-02 0.725314021111D-05 0.515359252739D+04
    0.504000000000D+05-0.465661287308D-07 0.226430948924D+00 0.558793544769D-07
    0.964156267950D+00 0.245187500000D+03 0.206120743306D+01-0.803354891527D-08
    0.411088552060D-09 0.100000000000D+01 0.239700000000D+04 0.000000000000D+00
    0.200000000000D+01 0.000000000000D+00 0.465661300000D-09 0.480000000000D+02
    0.501300000000D+05 0.400000000000D+01 0.000000000000D+00 0.000000000000D+00
10 25 12 14 14  0  0.0-0.573402736336D-03-0.397903932026D-11 0.000000000000D+00
    0.950000000000D+02-0.419687500000D+02 0.371408327790D-08-0.520374459776D+00
   -0.202096998692D-05 0.109360623173D-01 0.977888703346D-05 0.515365023804D+04
    0.504000000000D+05 0.000000000000D+00-0.783608932663D+00 0.186264514923D-06
    0.992041009439D+00 0.209062500000D+03-0.228262761838D+01-0.776996650744D-08
    0.280368821344D-09 0.100000000000D+01 0.239700000000D+04 0.000000000000D+00
    0.200000000000D+01 0.000000000000D+00 0.232830643654D-08 0.950000000000D+02
    0.432180000000D+05 0.400000000000D+01 0.000000000000D+00 0.000000000000D+00
11 25 12 14 14  0  0.0-0.510357320309D-03 0.135287336889D-10 0.000000000000D+00
    0.113000000000D+03-0.499687500000D+02 0.428624996809D-08 0.281874176446D+01
   -0.254623591900D-05 0.226953439415D-02 0.461935997009D-05 0.515376483536D+04
    0.504000000000D+05-0.130385160446D-07-0.179715876434D+01-0.279396772385D-07
    0.964127261210D+00 0.291250000000D+03-0.226466125081D+01-0.811105214359D-08
   -0.971469037013D-10 0.100000000000D+01 0.239700000000D+04 0.000000000000D+00
    0.200000000000D+01 0.000000000000D+00-0.884756400000D-08 0.881000000000D+03
    0.445800000000D+05 0.400000000000D+01 0.000000000000D+00 0.000000000000D+00
12 25 12 14 14  0  0.0-0.605165958405D-03-0.568434188608D-12 0.000000000000D+00
    0.780000000000D+02 0.632187500000D+02 0.445768568050D-08 0.271004711063D+00
    0.325590372086D-05 0.900779932272D-02 0.954419374466D-05 0.515358851623D+04
    0.504000000000D+05-0.167638063431D-06 0.241707664218D+01-0.260770320892D-07
    0.959464607746D+00 0.196500000000D+03 0.152627924249D+01-0.805176395972D-08
   -0.222152110670D-09 0.100000000000D+01 0.239700000000D+04 0.000000000000D+00
    0.200000000000D+01 0.000000000000D+00-0.125728547573D-07 0.780000000000D+02
    0.432200000000D+05 0.400000000000D+01 0.000000000000D+00 0.000000000000D+00
